{"type": "FeatureCollection", "features": [ {"type": "Feature", "properties": {"norad_id": 66540, "name": "STARLINK-35818", "group": "last-30-days", "lat": -19.761024238028092, "lon": 78.07044439706306, "alt_km": 352.750503157813, "timestamp": "2025-12-04T19:33:58.449053+00:00", "meta": {"OBJECT_NAME": "STARLINK-35818", "OBJECT_ID": "2025-265AA", "EPOCH": "2025-12-04T08:00:01.999872", "MEAN_MOTION": 15.74416076, "ECCENTRICITY": 0.00014509, "INCLINATION": 42.9996, "RA_OF_ASC_NODE": 103.6651, "ARG_OF_PERICENTER": 283.3866, "MEAN_ANOMALY": 193.88, "EPHEMERIS_TYPE": 0, "CLASSIFICATION_TYPE": "U", "NORAD_CAT_ID": 66540, "ELEMENT_SET_NO": 999, "REV_AT_EPOCH": 364, "BSTAR": -0.013604066, "MEAN_MOTION_DOT": -0.01784723, "MEAN_MOTION_DDOT": 0}, "tle": {"line1": "1 66540U 25265AA  25338.33335648 -.01784723  00000+0 -13604-1 0  9995", "line2": "2 66540  42.9996 103.6651 0001450 283.3866 193.8800 15.74416076  3643"}}, "geometry": {"type": "Point", "coordinates": [78.07044439706306, -19.761024238028092]}}, {"type": "Feature", "properties": {"norad_id": 66541, "name": "STARLINK-35796", "group": "last-30-days", "lat": -18.548082906589897, "lon": 79.63774347387206, "alt_km": 352.76498934371375, "timestamp": "2025-12-04T19:33:58.449062+00:00", "meta": {"OBJECT_NAME": "STARLINK-35796", "OBJECT_ID": "2025-265AB", "EPOCH": "2025-12-04T08:00:01.999872", "MEAN_MOTION": 15.74419636, "ECCENTRICITY": 0.00014192, "INCLINATION": 42.9997, "RA_OF_ASC_NODE": 103.6601, "ARG_OF_PERICENTER": 279.5452, "MEAN_ANOMALY": 199.6365, "EPHEMERIS_TYPE": 0, "CLASSIFICATION_TYPE": "U", "NORAD_CAT_ID": 66541, "ELEMENT_SET_NO": 999, "REV_AT_EPOCH": 364, "BSTAR": -0.013634434, "MEAN_MOTION_DOT": -0.01788428, "MEAN_MOTION_DDOT": 0}, "tle": {"line1": "1 66541U 25265AB  25338.33335648 -.01788428  00000+0 -13634-1 0  9995", "line2": "2 66541  42.9997 103.6601 0001419 279.5452 199.6365 15.74419636  3648"}}, "geometry": {"type": "Point", "coordinates": [79.63774347387206, -18.548082906589897]}}, {"type": "Feature", "properties": {"norad_id": 66542, "name": "STARLINK-35833", "group": "last-30-days", "lat": -17.325745926477822, "lon": 81.17904693748048, "alt_km": 353.12942722888783, "timestamp": "2025-12-04T19:33:58.449071+00:00", "meta": {"OBJECT_NAME": "STARLINK-35833", "OBJECT_ID": "2025-265AC", "EPOCH": "2025-12-04T08:00:01.999872", "MEAN_MOTION": 15.7442398, "ECCENTRICITY": 7.949e-05, "INCLINATION": 42.9998, "RA_OF_ASC_NODE": 103.6557, "ARG_OF_PERICENTER": 256.0944, "MEAN_ANOMALY": 225.001, "EPHEMERIS_TYPE": 0, "CLASSIFICATION_TYPE": "U", "NORAD_CAT_ID": 66542, "ELEMENT_SET_NO": 999, "REV_AT_EPOCH": 364, "BSTAR": -0.013668902, "MEAN_MOTION_DOT": -0.01792201, "MEAN_MOTION_DDOT": 0}, "tle": {"line1": "1 66542U 25265AC  25338.33335648 -.01792201  00000+0 -13669-1 0  9998", "line2": "2 66542  42.9998 103.6557 0000794 256.0944 225.0010 15.74423980  3649"}}, "geometry": {"type": "Point", "coordinates": [81.17904693748048, -17.325745926477822]}}, {"type": "Feature", "properties": {"norad_id": 66543, "name": "STARLINK-35315", "group": "last-30-days", "lat": -16.0887070976012, "lon": 82.70246723629207, "alt_km": 352.66662125666426, "timestamp": "2025-12-04T19:33:58.449082+00:00", "meta": {"OBJECT_NAME": "STARLINK-35315", "OBJECT_ID": "2025-265AD", "EPOCH": "2025-12-04T08:00:01.999872", "MEAN_MOTION": 15.74436621, "ECCENTRICITY": 0.00012144, "INCLINATION": 42.9999, "RA_OF_ASC_NODE": 103.6503, "ARG_OF_PERICENTER": 281.5638, "MEAN_ANOMALY": 201.4394, "EPHEMERIS_TYPE": 0, "CLASSIFICATION_TYPE": "U", "NORAD_CAT_ID": 66543, "ELEMENT_SET_NO": 999, "REV_AT_EPOCH": 353, "BSTAR": -0.013777757, "MEAN_MOTION_DOT": -0.01805864, "MEAN_MOTION_DDOT": 0}, "tle": {"line1": "1 66543U 25265AD  25338.33335648 -.01805864  00000+0 -13778-1 0  9990", "line2": "2 66543  42.9999 103.6503 0001214 281.5638 201.4394 15.74436621  3530"}}, "geometry": {"type": "Point", "coordinates": [82.70246723629207, -16.0887070976012]}}, {"type": "Feature", "properties": {"norad_id": 66544, "name": "STARLINK-35728", "group": "last-30-days", "lat": -14.840017294942488, "lon": 84.2086596398958, "alt_km": 353.0526953645058, "timestamp": "2025-12-04T19:33:58.449091+00:00", "meta": {"OBJECT_NAME": "STARLINK-35728", "OBJECT_ID": "2025-265AE", "EPOCH": "2025-12-04T08:00:01.999872", "MEAN_MOTION": 15.74424376, "ECCENTRICITY": 9.329e-05, "INCLINATION": 42.9996, "RA_OF_ASC_NODE": 103.6458, "ARG_OF_PERICENTER": 249.9265, "MEAN_ANOMALY": 235.0035, "EPHEMERIS_TYPE": 0, "CLASSIFICATION_TYPE": "U", "NORAD_CAT_ID": 66544, "ELEMENT_SET_NO": 999, "REV_AT_EPOCH": 364, "BSTAR": -0.013675361, "MEAN_MOTION_DOT": -0.01793072, "MEAN_MOTION_DDOT": 0}, "tle": {"line1": "1 66544U 25265AE  25338.33335648 -.01793072  00000+0 -13675-1 0  9994", "line2": "2 66544  42.9996 103.6458 0000932 249.9265 235.0035 15.74424376  3648"}}, "geometry": {"type": "Point", "coordinates": [84.2086596398958, -14.840017294942488]}}, {"type": "Feature", "properties": {"norad_id": 66545, "name": "SHIJIAN-30A", "group": "last-30-days", "lat": -18.61856293206046, "lon": -154.63216037857995, "alt_km": 527.5407676414861, "timestamp": "2025-12-04T19:33:58.449101+00:00", "meta": {"OBJECT_NAME": "SHIJIAN-30A", "OBJECT_ID": "2025-266A", "EPOCH": "2025-12-04T07:35:24.551232", "MEAN_MOTION": 15.15379626, "ECCENTRICITY": 0.0012792, "INCLINATION": 51.7998, "RA_OF_ASC_NODE": 12.3211, "ARG_OF_PERICENTER": 326.5998, "MEAN_ANOMALY": 33.417, "EPHEMERIS_TYPE": 0, "CLASSIFICATION_TYPE": "U", "NORAD_CAT_ID": 66545, "ELEMENT_SET_NO": 999, "REV_AT_EPOCH": 230, "BSTAR": 0.001279539, "MEAN_MOTION_DOT": 0.00024273, "MEAN_MOTION_DDOT": 0}, "tle": {"line1": "1 66545U 25266A   25338.31625638  .00024273  00000+0  12795-2 0  9995", "line2": "2 66545  51.7998  12.3211 0012792 326.5998  33.4170 15.15379626  2308"}}, "geometry": {"type": "Point", "coordinates": [-154.63216037857995, -18.61856293206046]}}, {"type": "Feature", "properties": {"norad_id": 66546, "name": "SHIJIAN-30B", "group": "last-30-days", "lat": -14.790540398539802, "lon": -158.0068957509805, "alt_km": 526.8606028462391, "timestamp": "2025-12-04T19:33:58.449110+00:00", "meta": {"OBJECT_NAME": "SHIJIAN-30B", "OBJECT_ID": "2025-266B", "EPOCH": "2025-12-04T07:36:46.766016", "MEAN_MOTION": 15.15446341, "ECCENTRICITY": 0.00104738, "INCLINATION": 51.7982, "RA_OF_ASC_NODE": 12.3257, "ARG_OF_PERICENTER": 329.6937, "MEAN_ANOMALY": 30.3432, "EPHEMERIS_TYPE": 0, "CLASSIFICATION_TYPE": "U", "NORAD_CAT_ID": 66546, "ELEMENT_SET_NO": 999, "REV_AT_EPOCH": 230, "BSTAR": 0.0015236676, "MEAN_MOTION_DOT": 0.0002902, "MEAN_MOTION_DDOT": 0}, "tle": {"line1": "1 66546U 25266B   25338.31720794  .00029020  00000+0  15237-2 0  9994", "line2": "2 66546  51.7982  12.3257 0010473 329.6937  30.3432 15.15446341  2309"}}, "geometry": {"type": "Point", "coordinates": [-158.0068957509805, -14.790540398539802]}}, {"type": "Feature", "properties": {"norad_id": 66547, "name": "SHIJIAN-30C", "group": "last-30-days", "lat": -11.720227608512122, "lon": -160.5971224500745, "alt_km": 526.4673201668538, "timestamp": "2025-12-04T19:33:58.449119+00:00", "meta": {"OBJECT_NAME": "SHIJIAN-30C", "OBJECT_ID": "2025-266C", "EPOCH": "2025-12-04T07:37:50.071296", "MEAN_MOTION": 15.15478746, "ECCENTRICITY": 0.0011359, "INCLINATION": 51.7993, "RA_OF_ASC_NODE": 12.3307, "ARG_OF_PERICENTER": 321.7891, "MEAN_ANOMALY": 38.2279, "EPHEMERIS_TYPE": 0, "CLASSIFICATION_TYPE": "U", "NORAD_CAT_ID": 66547, "ELEMENT_SET_NO": 999, "REV_AT_EPOCH": 230, "BSTAR": 0.0012824077, "MEAN_MOTION_DOT": 0.00024388, "MEAN_MOTION_DDOT": 0}, "tle": {"line1": "1 66547U 25266C   25338.31794064  .00024388  00000+0  12824-2 0  9997", "line2": "2 66547  51.7993  12.3307 0011359 321.7891  38.2279 15.15478746  2304"}}, "geometry": {"type": "Point", "coordinates": [-160.5971224500745, -11.720227608512122]}}, {"type": "Feature", "properties": {"norad_id": 66548, "name": "CZ-2C R/B", "group": "last-30-days", "lat": -49.62605324128733, "lon": -57.56002624840556, "alt_km": 524.0923070383669, "timestamp": "2025-12-04T19:33:58.449129+00:00", "meta": {"OBJECT_NAME": "CZ-2C R/B", "OBJECT_ID": "2025-266D", "EPOCH": "2025-12-04T07:21:24.710400", "MEAN_MOTION": 15.29896001, "ECCENTRICITY": 0.00846513, "INCLINATION": 52.0557, "RA_OF_ASC_NODE": 11.4497, "ARG_OF_PERICENTER": 144.3836, "MEAN_ANOMALY": 216.2839, "EPHEMERIS_TYPE": 0, "CLASSIFICATION_TYPE": "U", "NORAD_CAT_ID": 66548, "ELEMENT_SET_NO": 999, "REV_AT_EPOCH": 232, "BSTAR": 0.00076189061, "MEAN_MOTION_DOT": 0.0002465, "MEAN_MOTION_DDOT": 0}, "tle": {"line1": "1 66548U 25266D   25338.30653600  .00024650  00000+0  76189-3 0  9994", "line2": "2 66548  52.0557  11.4497 0084651 144.3836 216.2839 15.29896001  2323"}}, "geometry": {"type": "Point", "coordinates": [-57.56002624840556, -49.62605324128733]}}, {"type": "Feature", "properties": {"norad_id": 66549, "name": "SHIJIAN-28", "group": "last-30-days", "lat": 6.770295930131146, "lon": -58.842976024574966, "alt_km": 26937.689783721627, "timestamp": "2025-12-04T19:33:58.449139+00:00", "meta": {"OBJECT_NAME": "SHIJIAN-28", "OBJECT_ID": "2025-277A", "EPOCH": "2025-11-30T18:06:43.124256", "MEAN_MOTION": 2.28019775, "ECCENTRICITY": 0.7300519, "INCLINATION": 14.4344, "RA_OF_ASC_NODE": 275.4056, "ARG_OF_PERICENTER": 179.5026, "MEAN_ANOMALY": 182.358, "EPHEMERIS_TYPE": 0, "CLASSIFICATION_TYPE": "U", "NORAD_CAT_ID": 66549, "ELEMENT_SET_NO": 999, "REV_AT_EPOCH": 4, "BSTAR": 0.00062085, "MEAN_MOTION_DOT": 6.315e-05, "MEAN_MOTION_DDOT": 0}, "tle": {"line1": "1 66549U 25277A   25334.75466579  .00006315  00000+0  62085-3 0  9997", "line2": "2 66549  14.4344 275.4056 7300519 179.5026 182.3580  2.28019775    48"}}, "geometry": {"type": "Point", "coordinates": [-58.842976024574966, 6.770295930131146]}}]}